NORAD_CAT_ID,OBJECT_NAME,OBJECT_TYPE,EPOCH,MEAN_MOTION,ECCENTRICITY,INCLINATION,RA_OF_ASC_NODE,ARG_OF_PERICENTER,MEAN_ANOMALY,BSTAR,MEAN_MOTION_DOT,MEAN_MOTION_DDOT,TLE_LINE0,TLE_LINE1,TLE_LINE2,SEMIMAJOR_AXIS,PERIOD,APOGEE,PERIGEE,DECAYED
50803.0,STARLINK-3321,PAYLOAD,2022-07-07 21:20:59,15.08843353,0.0002563,53.218,68.1963,69.6281,290.4986,5.1138e-05,5.26e-06,0.0,0 STARLINK-3321,1 50803U 22001A   22188.88958329  .00000526  00000-0  51138-4 0  9999,2 50803  53.2180  68.1963 0002563  69.6281 290.4986 15.08843353 27993,6917.87,95.437,541.508,537.962,0.0
50803.0,STARLINK-3321,PAYLOAD,2022-07-08 02:07:08,15.088495000000002,0.0002577,53.2183,67.3035,69.9615,290.1654,5.6164e-05,6.06e-06,0.0,0 STARLINK-3321,1 50803U 22001A   22189.08829851  .00000606  00000-0  56164-4 0  9992,2 50803  53.2183  67.3035 0002577  69.9615 290.1654 15.08849500 29290,6917.851,95.437,541.499,537.934,0.0
50803.0,STARLINK-3321,PAYLOAD,2022-07-08 08:28:41,15.088447,0.0002583,53.2185,66.1136,69.4473,290.6797,3.4836e-05,2.66e-06,0.0,0 STARLINK-3321,1 50803U 22001A   22189.35326089  .00000266  00000-0  34836-4 0  9991,2 50803  53.2185  66.1136 0002583  69.4473 290.6797 15.08844700 28069,6917.866,95.437,541.518,537.944,0.0
50803.0,STARLINK-3321,PAYLOAD,2022-07-08 19:36:23,15.08847197,0.0002511,53.2182,64.0319,72.411,287.7156,0.00010854,1.44e-05,0.0,0 STARLINK-3321,1 50803U 22001A   22189.81693416  .00001440  00000-0  10854-3 0  9991,2 50803  53.2182  64.0319 0002511  72.4110 287.7156 15.08847197 28136,6917.858,95.437,541.46,537.986,0.0
50803.0,STARLINK-3321,PAYLOAD,2022-07-09 01:57:55,15.0885045,0.0002513,53.2182,62.8432,71.2363,288.8902,0.00012677,1.73e-05,0.0,0 STARLINK-3321,1 50803U 22001A   22190.08189017  .00001730  00000-0  12677-3 0  9996,2 50803  53.2182  62.8432 0002513  71.2363 288.8902 15.08850450 29449,6917.848000000001,95.437,541.452,537.975,0.0
50803.0,STARLINK-3321,PAYLOAD,2022-07-09 08:19:27,15.0884997,0.0002523,53.2183,61.6537,71.1402,288.9863,0.00011344,1.518e-05,0.0,0 STARLINK-3321,1 50803U 22001A   22190.34684908  .00001518  00000-0  11344-3 0  9998,2 50803  53.2183  61.6537 0002523  71.1402 288.9863 15.08849970 28213,6917.85,95.437,541.46,537.97,0.0
50803.0,STARLINK-3321,PAYLOAD,2022-07-09 16:16:24,15.08837767,0.000222,53.2182,60.167,71.9812,288.1422,-0.00011881,-2.179e-05,0.0,0 STARLINK-3321,1 50803U 22001A   22190.67806310 -.00002179  00000-0 -11881-3 0  9999,2 50803  53.2182  60.1670 0002220  71.9812 288.1422 15.08837767 29531,6917.887,95.438,541.288,538.216,0.0
50803.0,STARLINK-3321,PAYLOAD,2022-07-10 00:13:22,15.08812448,0.0002178,53.2192,58.6845,70.7525,289.3703,-0.00027959,-4.732e-05,0.0,0 STARLINK-3321,1 50803U 22001A   22191.00928799 -.00004732  00000-0 -27959-3 0  9993,2 50803  53.2192  58.6845 0002178  70.7525 289.3703 15.08812448 29587,6917.965,95.439,541.336,538.323,0.0
50803.0,STARLINK-3321,PAYLOAD,2022-07-10 08:10:18,15.08810115,0.0002294,53.2187,57.1974,76.0715,284.0532,-0.0002778,-4.703e-05,0.0,0 STARLINK-3321,1 50803U 22001A   22191.34049511 -.00004703  00000-0 -27780-3 0  9996,2 50803  53.2187  57.1974 0002294  76.0715 284.0532 15.08810115 28363,6917.972,95.439,541.424,538.25,0.0
50803.0,STARLINK-3321,PAYLOAD,2022-07-10 20:53:23,15.08828537,0.0002035,53.2182,54.8145,70.791,289.3302,-0.00016061,-2.843e-05,0.0,0 STARLINK-3321,1 50803U 22001A   22191.87040544 -.00002843  00000-0 -16061-3 0  9994,2 50803  53.2182  54.8145 0002035  70.7910 289.3302 15.08828537 28442,6917.915,95.438,541.188,538.373,0.0
50803.0,STARLINK-3321,PAYLOAD,2022-07-11 00:04:08,15.08832109,0.0001977,53.2179,54.2189,74.8828,285.2383,-0.00010184,-1.908e-05,0.0,0 STARLINK-3321,1 50803U 22001A   22192.00288143 -.00001908  00000-0 -10184-3 0  9990,2 50803  53.2179  54.2189 0001977  74.8828 285.2383 15.08832109 29734,6917.905,95.438,541.137,538.4019999999998,0.0
50803.0,STARLINK-3321,PAYLOAD,2022-07-11 08:01:03,15.08842754,0.0001806,53.2177,52.7325,70.7116,289.4072,1.0105e-05,-1.27e-06,0.0,0 STARLINK-3321,1 50803U 22001A   22192.33407181 -.00000127  00000-0  10105-4 0  9996,2 50803  53.2177  52.7325 0001806  70.7116 289.4072 15.08842754 29786,6917.871999999999,95.437,540.986,538.488,0.0
50803.0,STARLINK-3321,PAYLOAD,2022-07-11 20:44:08,15.08841766,0.0001801,53.2183,50.354,66.642,293.4761,0.00017833,2.551e-05,0.0,0 STARLINK-3321,1 50803U 22001A   22192.86398813  .00002551  00000-0  17833-3 0  9991,2 50803  53.2183  50.3540 0001801  66.6420 293.4761 15.08841766 28593,6917.875,95.437,540.986,538.494,0.0
50803.0,STARLINK-3321,PAYLOAD,2022-07-12 07:51:50,15.08832387,0.0001531999999999,53.2188,48.2721,66.0583,294.0569,0.00034053,5.135e-05,0.0,0 STARLINK-3321,1 50803U 22001A   22193.32767183  .00005135  00000-0  34053-3 0  9997,2 50803  53.2188  48.2721 0001532  66.0583 294.0569 15.08832387 28660,6917.904,95.438,540.828,538.7090000000002,0.0
50803.0,STARLINK-3321,PAYLOAD,2022-07-12 20:34:51,15.09024594,6e-05,53.2186,45.8932,86.8975,273.2086,-0.0021969,-0.00035256,0.0,0 STARLINK-3321,1 50803U 22001A   22193.85754009 -.00035256  00000-0 -21969-2 0  9998,2 50803  53.2186  45.8932 0000600  86.8975 273.2086 15.09024594 28741,6917.316,95.426,539.596,538.766,0.0
50803.0,STARLINK-3321,PAYLOAD,2022-07-13 01:21:06,15.08811502,0.0001913,53.2184,45.0014,63.0844,297.0344,0.00070217,0.00010896,0.0,0 STARLINK-3321,1 50803U 22001A   22194.05632228  .00010896  00000-0  70217-3 0  9991,2 50803  53.2184  45.0014 0001913  63.0844 297.0344 15.08811502 30041,6917.967,95.439,541.156,538.509,0.0
50803.0,STARLINK-3321,PAYLOAD,2022-07-13 07:42:37,15.0885051,0.0001774999999999,53.2185,43.8119,68.6719,291.4463,7.371e-05,8.86e-06,0.0,0 STARLINK-3321,1 50803U 22001A   22194.32126817  .00000886  00000-0  73710-4 0  9993,2 50803  53.2185  43.8119 0001775  68.6719 291.4463 15.08850510 30088,6917.848000000001,95.437,540.941,538.485,0.0
50803.0,STARLINK-3321,PAYLOAD,2022-07-13 20:25:42,15.08847231,0.0001665,53.2181,41.433,69.3288,290.7883,-2.3354e-05,-6.6e-06,0.0,0 STARLINK-3321,1 50803U 22001A   22194.85118863 -.00000660  00000-0 -23354-4 0  9994,2 50803  53.2181  41.4330 0001665  69.3288 290.7883 15.08847231 28890,6917.858,95.437,540.875,538.571,0.0
50803.0,STARLINK-3321,PAYLOAD,2022-07-14 12:19:34,15.08834999,0.0001716,53.218,38.4595,69.3525,290.7651,-0.00012317,-2.248e-05,0.0,0 STARLINK-3321,1 50803U 22001A   22195.51359764 -.00002248  00000-0 -12317-3 0  9995,2 50803  53.2180  38.4595 0001716  69.3525 290.7651 15.08834999 28990,6917.896,95.438,540.948,538.5740000000002,0.0
50803.0,STARLINK-3321,PAYLOAD,2022-07-14 20:16:30,15.08840727,0.0001681,53.2185,36.9738,65.3308,294.7859,-6.2454e-05,-1.282e-05,0.0,0 STARLINK-3321,1 50803U 22001A   22195.84479198 -.00001282  00000-0 -62454-4 0  9990,2 50803  53.2185  36.9738 0001681  65.3308 294.7859 15.08840727 30312,6917.878000000002,95.438,540.906,538.58,0.0
50803.0,STARLINK-3321,PAYLOAD,2022-07-15 05:48:48,15.08850105,0.0001551999999999,53.2184,35.1896,66.2355,293.88,-0.00011397,-2.102e-05,0.0,0 STARLINK-3321,1 50803U 22001A   22196.24222611 -.00002102  00000-0 -11397-3 0  9992,2 50803  53.2184  35.1896 0001552  66.2355 293.8800 15.08850105 30379,6917.85,95.437,540.788,538.641,0.0
50803.0,STARLINK-3321,PAYLOAD,2022-07-15 13:45:44,15.08835738,0.0001598,53.2185,33.7035,65.5024,294.6134,-3.8485e-05,-9e-06,0.0,0 STARLINK-3321,1 50803U 22001A   22196.57343372 -.00000900  00000-0 -38485-4 0  9998,2 50803  53.2185  33.7035 0001598  65.5024 294.6134 15.08835738 29152,6917.893,95.438,540.864,538.653,0.0
50803.0,STARLINK-3321,PAYLOAD,2022-07-15 20:07:17,15.08818169,0.0001691,53.2193,32.5145,70.3066,289.8108,0.00017847,2.552e-05,0.0,0 STARLINK-3321,1 50803U 22001A   22196.83839801  .00002552  00000-0  17847-3 0  9995,2 50803  53.2193  32.5145 0001691  70.3066 289.8108 15.08818169 30466,6917.946999999999,95.439,540.982,538.6419999999998,0.0
50803.0,STARLINK-3321,PAYLOAD,2022-07-15 23:18:03,15.08836228,0.0001554,53.2188,31.9191,62.806,297.3091,2.5915e-05,1.24e-06,0.0,0 STARLINK-3321,1 50803U 22001A   22196.97087322  .00000124  00000-0  25915-4 0  9992,2 50803  53.2188  31.9191 0001554  62.8060 297.3091 15.08836228 30485,6917.892,95.438,540.832,538.682,0.0
50803.0,STARLINK-3321,PAYLOAD,2022-07-16 13:36:31,15.08840289,0.0001588,53.219,29.2429,65.6715,294.4443,9.5389e-05,1.23e-05,0.0,0 STARLINK-3321,1 50803U 22001A   22197.56703033  .00001230  00000-0  95389-4 0  9993,2 50803  53.2190  29.2429 0001588  65.6715 294.4443 15.08840289 29307,6917.88,95.438,540.8430000000002,538.646,0.0
50803.0,STARLINK-3321,PAYLOAD,2022-07-16 19:58:04,15.08836062,0.0001512,53.2188,28.053,63.6529,296.4618,5.0248e-05,5.12e-06,0.0,0 STARLINK-3321,1 50803U 22001A   22197.83199471  .00000512  00000-0  50248-4 0  9995,2 50803  53.2188  28.0530 0001512  63.6529 296.4618 15.08836062 29346,6917.892,95.438,540.803,538.711,0.0
50803.0,STARLINK-3321,PAYLOAD,2022-07-17 05:30:22,15.08843141,0.000154,53.2191,26.2688,63.7502,296.3648,7.5882e-05,9.2e-06,0.0,0 STARLINK-3321,1 50803U 22001A   22198.22943008  .00000920  00000-0  75882-4 0  9996,2 50803  53.2191  26.2688 0001540  63.7502 296.3648 15.08843141 30673,6917.871,95.437,540.8009999999998,538.67,0.0
50803.0,STARLINK-3321,PAYLOAD,2022-07-17 11:51:55,15.08837862,0.0001493,53.2193,25.0794,66.0915,294.0234,9.4706e-05,1.22e-05,0.0,0 STARLINK-3321,1 50803U 22001A   22198.49439262  .00001220  00000-0  94706-4 0  9997,2 50803  53.2193  25.0794 0001493  66.0915 294.0234 15.08837862 29443,6917.887,95.438,540.785,538.719,0.0
50803.0,STARLINK-3321,PAYLOAD,2022-07-17 18:13:28,15.08837052,0.0001496,53.2194,23.8898,62.1935,297.9208,4.394e-05,4.11e-06,0.0,0 STARLINK-3321,1 50803U 22001A   22198.75935558  .00000411  00000-0  43940-4 0  9990,2 50803  53.2194  23.8898 0001496  62.1935 297.9208 15.08837052 29485,6917.889,95.438,540.789,538.719,0.0
